STARLINK-36416          
1 67630U 26020P   26065.31263544  .00424909  00000+0  24616-2 0  9997
2 67630  42.9993 162.6537 0001700 257.9934 102.0745 15.76569235  5550
STARLINK-36527          
1 67631U 26020Q   26064.63312927  .00230463  00000+0  13955-2 0  9996
2 67631  42.9996 166.1312 0003178 323.6651  36.4002 15.76111064  5450
STARLINK-36633          
1 67632U 26020R   26065.28197981  .00416963  00000+0  24186-2 0  9999
2 67632  42.9989 162.4052 0002855 249.5451 110.5113 15.76562728  5553
STARLINK-36637          
1 67633U 26020S   26065.24709348  .00366230  00000+0  21263-2 0  9996
2 67633  42.9984 163.0210 0003123 324.6336  35.4327 15.76681425  5545
STARLINK-36617          
1 67634U 26020T   26064.63526686  .00271443  00000+0  16163-2 0  9995
2 67634  42.9998 166.1469 0004385 314.3192  45.7318 15.76371153  5456
STARLINK-36627          
1 67635U 26020U   26065.30387612  .00407941  00000+0  23855-2 0  9995
2 67635  42.9987 162.5806 0000990 230.8083 129.2699 15.76402981  5554
STARLINK-36624          
1 67636U 26020V   26065.28417214  .00356925  00000+0  20858-2 0  9990
2 67636  42.9976 162.4241 0001965 231.3891 128.6803 15.76561381  5551
STARLINK-36610          
1 67637U 26020W   26065.30606647  .00522188  00000+0  29752-2 0  9992
2 67637  42.9993 162.6000 0002402 227.9255 132.1411 15.76677918  5557
STARLINK-36599          
1 67638U 26020X   26065.32782302  .00344590  00000+0  20346-2 0  9997
2 67638  42.9992 161.8766 0001650 263.0811  96.9871 15.76361563  5564
STARLINK-36595          
1 67639U 26020Y   26065.27760124  .00571263  00000+0  32416-2 0  9990
2 67639  42.9988 162.3678 0002095 259.1574 100.9060 15.76634817  5554
STARLINK-36570          
1 67640U 26020Z   26065.29949557  .00356877  00000+0  20829-2 0  9990
2 67640  42.9980 162.5441 0002007 229.8864 130.1830 15.76589375  5555
STARLINK-36514          
1 67641U 26020AA  26065.26227430  .00468127  00000+0  26928-2 0  9995
2 67641  42.9978 162.2423 0003024 259.7621 100.2908 15.76610550  5557
STARLINK-36556          
1 67642U 26020AB  26065.28854903  .00315821  00000+0  18674-2 0  9990
2 67642  42.9985 162.4572 0001194 234.4765 125.5993 15.76409582  5553
STARLINK-36533          
1 67643U 26020AC  26065.30168500  .00314435  00000+0  18471-2 0  9990
2 67643  42.9982 162.5615 0002189 233.2259 126.8410 15.76561948  5553
STARLINK-36623          
1 67644U 26020AD  26065.29511837  .00309318  00000+0  18196-2 0  9992
2 67644  42.9983 162.5089 0000909 275.0826  84.9940 15.76544160  5551
STARLINK-36619          
1 67645U 26020AE  26065.29292863  .00377535  00000+0  21990-2 0  9990
2 67645  42.9989 162.4923 0001669 237.5576 122.5132 15.76577660  5556
