[{"OBJECT_NAME":"STARLINK-36416","OBJECT_ID":"2026-020P","EPOCH":"2026-03-06T07:30:11.702016","MEAN_MOTION":15.76569235,"ECCENTRICITY":0.00017004,"INCLINATION":42.9993,"RA_OF_ASC_NODE":162.6537,"ARG_OF_PERICENTER":257.9934,"MEAN_ANOMALY":102.0745,"EPHEMERIS_TYPE":0,"CLASSIFICATION_TYPE":"U","NORAD_CAT_ID":67630,"ELEMENT_SET_NO":999,"REV_AT_EPOCH":555,"BSTAR":0.0024615546,"MEAN_MOTION_DOT":0.00424909,"MEAN_MOTION_DDOT":0},{"OBJECT_NAME":"STARLINK-36527","OBJECT_ID":"2026-020Q","EPOCH":"2026-03-05T15:11:42.368928","MEAN_MOTION":15.76111064,"ECCENTRICITY":0.0003178,"INCLINATION":42.9996,"RA_OF_ASC_NODE":166.1312,"ARG_OF_PERICENTER":323.6651,"MEAN_ANOMALY":36.4002,"EPHEMERIS_TYPE":0,"CLASSIFICATION_TYPE":"U","NORAD_CAT_ID":67631,"ELEMENT_SET_NO":999,"REV_AT_EPOCH":545,"BSTAR":0.0013955,"MEAN_MOTION_DOT":0.00230463,"MEAN_MOTION_DDOT":0},{"OBJECT_NAME":"STARLINK-36633","OBJECT_ID":"2026-020R","EPOCH":"2026-03-06T06:46:03.055584","MEAN_MOTION":15.76562728,"ECCENTRICITY":0.00028555,"INCLINATION":42.9989,"RA_OF_ASC_NODE":162.4052,"ARG_OF_PERICENTER":249.5451,"MEAN_ANOMALY":110.5113,"EPHEMERIS_TYPE":0,"CLASSIFICATION_TYPE":"U","NORAD_CAT_ID":67632,"ELEMENT_SET_NO":999,"REV_AT_EPOCH":555,"BSTAR":0.0024185651,"MEAN_MOTION_DOT":0.00416963,"MEAN_MOTION_DDOT":0},{"OBJECT_NAME":"STARLINK-36637","OBJECT_ID":"2026-020S","EPOCH":"2026-03-06T05:55:48.876672","MEAN_MOTION":15.76681425,"ECCENTRICITY":0.0003123,"INCLINATION":42.9984,"RA_OF_ASC_NODE":163.021,"ARG_OF_PERICENTER":324.6336,"MEAN_ANOMALY":35.4327,"EPHEMERIS_TYPE":0,"CLASSIFICATION_TYPE":"U","NORAD_CAT_ID":67633,"ELEMENT_SET_NO":999,"REV_AT_EPOCH":554,"BSTAR":0.0021263083,"MEAN_MOTION_DOT":0.0036623,"MEAN_MOTION_DDOT":0},{"OBJECT_NAME":"STARLINK-36617","OBJECT_ID":"2026-020T","EPOCH":"2026-03-05T15:14:47.056704","MEAN_MOTION":15.76371153,"ECCENTRICITY":0.0004385,"INCLINATION":42.9998,"RA_OF_ASC_NODE":166.1469,"ARG_OF_PERICENTER":314.3192,"MEAN_ANOMALY":45.7318,"EPHEMERIS_TYPE":0,"CLASSIFICATION_TYPE":"U","NORAD_CAT_ID":67634,"ELEMENT_SET_NO":999,"REV_AT_EPOCH":545,"BSTAR":0.0016163,"MEAN_MOTION_DOT":0.00271443,"MEAN_MOTION_DDOT":0},{"OBJECT_NAME":"STARLINK-36627","OBJECT_ID":"2026-020U","EPOCH":"2026-03-06T07:17:34.896768","MEAN_MOTION":15.76402981,"ECCENTRICITY":9.905e-5,"INCLINATION":42.9987,"RA_OF_ASC_NODE":162.5806,"ARG_OF_PERICENTER":230.8083,"MEAN_ANOMALY":129.2699,"EPHEMERIS_TYPE":0,"CLASSIFICATION_TYPE":"U","NORAD_CAT_ID":67635,"ELEMENT_SET_NO":999,"REV_AT_EPOCH":555,"BSTAR":0.0023855029,"MEAN_MOTION_DOT":0.00407941,"MEAN_MOTION_DDOT":0},{"OBJECT_NAME":"STARLINK-36624","OBJECT_ID":"2026-020V","EPOCH":"2026-03-06T06:49:12.472896","MEAN_MOTION":15.76561381,"ECCENTRICITY":0.00019654,"INCLINATION":42.9976,"RA_OF_ASC_NODE":162.4241,"ARG_OF_PERICENTER":231.3891,"MEAN_ANOMALY":128.6803,"EPHEMERIS_TYPE":0,"CLASSIFICATION_TYPE":"U","NORAD_CAT_ID":67636,"ELEMENT_SET_NO":999,"REV_AT_EPOCH":555,"BSTAR":0.0020857822,"MEAN_MOTION_DOT":0.00356925,"MEAN_MOTION_DDOT":0},{"OBJECT_NAME":"STARLINK-36610","OBJECT_ID":"2026-020W","EPOCH":"2026-03-06T07:20:44.143008","MEAN_MOTION":15.76677918,"ECCENTRICITY":0.00024027,"INCLINATION":42.9993,"RA_OF_ASC_NODE":162.6,"ARG_OF_PERICENTER":227.9255,"MEAN_ANOMALY":132.1411,"EPHEMERIS_TYPE":0,"CLASSIFICATION_TYPE":"U","NORAD_CAT_ID":67637,"ELEMENT_SET_NO":999,"REV_AT_EPOCH":555,"BSTAR":0.0029751953,"MEAN_MOTION_DOT":0.00522188,"MEAN_MOTION_DDOT":0},{"OBJECT_NAME":"STARLINK-36599","OBJECT_ID":"2026-020X","EPOCH":"2026-03-06T07:52:03.908928","MEAN_MOTION":15.76361563,"ECCENTRICITY":0.00016505,"INCLINATION":42.9992,"RA_OF_ASC_NODE":161.8766,"ARG_OF_PERICENTER":263.0811,"MEAN_ANOMALY":96.9871,"EPHEMERIS_TYPE":0,"CLASSIFICATION_TYPE":"U","NORAD_CAT_ID":67638,"ELEMENT_SET_NO":999,"REV_AT_EPOCH":556,"BSTAR":0.0020346237,"MEAN_MOTION_DOT":0.0034459,"MEAN_MOTION_DDOT":0},{"OBJECT_NAME":"STARLINK-36595","OBJECT_ID":"2026-020Y","EPOCH":"2026-03-06T06:39:44.747136","MEAN_MOTION":15.76634817,"ECCENTRICITY":0.00020958,"INCLINATION":42.9988,"RA_OF_ASC_NODE":162.3678,"ARG_OF_PERICENTER":259.1574,"MEAN_ANOMALY":100.906,"EPHEMERIS_TYPE":0,"CLASSIFICATION_TYPE":"U","NORAD_CAT_ID":67639,"ELEMENT_SET_NO":999,"REV_AT_EPOCH":555,"BSTAR":0.0032415564,"MEAN_MOTION_DOT":0.00571263,"MEAN_MOTION_DDOT":0},{"OBJECT_NAME":"STARLINK-36570","OBJECT_ID":"2026-020Z","EPOCH":"2026-03-06T07:11:16.417248","MEAN_MOTION":15.76589375,"ECCENTRICITY":0.0002007,"INCLINATION":42.998,"RA_OF_ASC_NODE":162.5441,"ARG_OF_PERICENTER":229.8864,"MEAN_ANOMALY":130.183,"EPHEMERIS_TYPE":0,"CLASSIFICATION_TYPE":"U","NORAD_CAT_ID":67640,"ELEMENT_SET_NO":999,"REV_AT_EPOCH":555,"BSTAR":0.002082935,"MEAN_MOTION_DOT":0.00356877,"MEAN_MOTION_DDOT":0},{"OBJECT_NAME":"STARLINK-36514","OBJECT_ID":"2026-020AA","EPOCH":"2026-03-06T06:17:40.499520","MEAN_MOTION":15.7661055,"ECCENTRICITY":0.00030247,"INCLINATION":42.9978,"RA_OF_ASC_NODE":162.2423,"ARG_OF_PERICENTER":259.7621,"MEAN_ANOMALY":100.2908,"EPHEMERIS_TYPE":0,"CLASSIFICATION_TYPE":"U","NORAD_CAT_ID":67641,"ELEMENT_SET_NO":999,"REV_AT_EPOCH":555,"BSTAR":0.0026927514,"MEAN_MOTION_DOT":0.00468127,"MEAN_MOTION_DDOT":0},{"OBJECT_NAME":"STARLINK-36556","OBJECT_ID":"2026-020AB","EPOCH":"2026-03-06T06:55:30.636192","MEAN_MOTION":15.76409582,"ECCENTRICITY":0.00011941,"INCLINATION":42.9985,"RA_OF_ASC_NODE":162.4572,"ARG_OF_PERICENTER":234.4765,"MEAN_ANOMALY":125.5993,"EPHEMERIS_TYPE":0,"CLASSIFICATION_TYPE":"U","NORAD_CAT_ID":67642,"ELEMENT_SET_NO":999,"REV_AT_EPOCH":555,"BSTAR":0.0018674407,"MEAN_MOTION_DOT":0.00315821,"MEAN_MOTION_DDOT":0},{"OBJECT_NAME":"STARLINK-36533","OBJECT_ID":"2026-020AC","EPOCH":"2026-03-06T07:14:25.584000","MEAN_MOTION":15.76561948,"ECCENTRICITY":0.00021897,"INCLINATION":42.9982,"RA_OF_ASC_NODE":162.5615,"ARG_OF_PERICENTER":233.2259,"MEAN_ANOMALY":126.841,"EPHEMERIS_TYPE":0,"CLASSIFICATION_TYPE":"U","NORAD_CAT_ID":67643,"ELEMENT_SET_NO":999,"REV_AT_EPOCH":555,"BSTAR":0.0018471058,"MEAN_MOTION_DOT":0.00314435,"MEAN_MOTION_DDOT":0},{"OBJECT_NAME":"STARLINK-36623","OBJECT_ID":"2026-020AD","EPOCH":"2026-03-06T07:04:58.227168","MEAN_MOTION":15.7654416,"ECCENTRICITY":9.098e-5,"INCLINATION":42.9983,"RA_OF_ASC_NODE":162.5089,"ARG_OF_PERICENTER":275.0826,"MEAN_ANOMALY":84.994,"EPHEMERIS_TYPE":0,"CLASSIFICATION_TYPE":"U","NORAD_CAT_ID":67644,"ELEMENT_SET_NO":999,"REV_AT_EPOCH":555,"BSTAR":0.0018196058,"MEAN_MOTION_DOT":0.00309318,"MEAN_MOTION_DDOT":0},{"OBJECT_NAME":"STARLINK-36619","OBJECT_ID":"2026-020AE","EPOCH":"2026-03-06T07:01:49.033632","MEAN_MOTION":15.7657766,"ECCENTRICITY":0.00016691,"INCLINATION":42.9989,"RA_OF_ASC_NODE":162.4923,"ARG_OF_PERICENTER":237.5576,"MEAN_ANOMALY":122.5132,"EPHEMERIS_TYPE":0,"CLASSIFICATION_TYPE":"U","NORAD_CAT_ID":67645,"ELEMENT_SET_NO":999,"REV_AT_EPOCH":555,"BSTAR":0.0021990436,"MEAN_MOTION_DOT":0.00377535,"MEAN_MOTION_DDOT":0}]
